[{"OBJECT_NAME":"ONEWEB-0528","OBJECT_ID":"2022-166B","EPOCH":"2026-06-06T12:05:19.840704","MEAN_MOTION":13.2170943,"ECCENTRICITY":0.0002105,"INCLINATION":87.9256,"RA_OF_ASC_NODE":246.125,"ARG_OF_PERICENTER":98.5408,"MEAN_ANOMALY":261.5965,"EPHEMERIS_TYPE":0,"CLASSIFICATION_TYPE":"U","NORAD_CAT_ID":54643,"ELEMENT_SET_NO":999,"REV_AT_EPOCH":17013,"BSTAR":-0.020585000000000003,"MEAN_MOTION_DOT":-8.466e-05,"MEAN_MOTION_DDOT":0.0},{"OBJECT_NAME":"ONEWEB-0539","OBJECT_ID":"2022-166C","EPOCH":"2026-06-06T13:00:41.169024","MEAN_MOTION":13.21825549,"ECCENTRICITY":0.0002091,"INCLINATION":87.9264,"RA_OF_ASC_NODE":246.0885,"ARG_OF_PERICENTER":93.5637,"MEAN_ANOMALY":266.5736,"EPHEMERIS_TYPE":0,"CLASSIFICATION_TYPE":"U","NORAD_CAT_ID":54644,"ELEMENT_SET_NO":999,"REV_AT_EPOCH":17013,"BSTAR":-0.00011659000000000001,"MEAN_MOTION_DOT":-3.5e-07,"MEAN_MOTION_DDOT":0.0},{"OBJECT_NAME":"ONEWEB-0540","OBJECT_ID":"2022-166D","EPOCH":"2026-06-06T04:05:33.235584","MEAN_MOTION":13.21826415,"ECCENTRICITY":0.0002057,"INCLINATION":87.9256,"RA_OF_ASC_NODE":246.1934,"ARG_OF_PERICENTER":96.4137,"MEAN_ANOMALY":263.7231,"EPHEMERIS_TYPE":0,"CLASSIFICATION_TYPE":"U","NORAD_CAT_ID":54645,"ELEMENT_SET_NO":999,"REV_AT_EPOCH":17007,"BSTAR":-6.5057e-05,"MEAN_MOTION_DOT":-1.4e-07,"MEAN_MOTION_DDOT":0.0},{"OBJECT_NAME":"ONEWEB-0542","OBJECT_ID":"2022-166E","EPOCH":"2026-06-06T11:26:12.569568","MEAN_MOTION":13.21827558,"ECCENTRICITY":0.0002119,"INCLINATION":87.9267,"RA_OF_ASC_NODE":246.0999,"ARG_OF_PERICENTER":91.7744,"MEAN_ANOMALY":268.3633,"EPHEMERIS_TYPE":0,"CLASSIFICATION_TYPE":"U","NORAD_CAT_ID":54646,"ELEMENT_SET_NO":999,"REV_AT_EPOCH":17012,"BSTAR":0.00011401,"MEAN_MOTION_DOT":6e-07,"MEAN_MOTION_DDOT":0.0},{"OBJECT_NAME":"ONEWEB-0545","OBJECT_ID":"2022-166F","EPOCH":"2026-06-06T12:24:20.545344","MEAN_MOTION":13.21827513,"ECCENTRICITY":0.0002354,"INCLINATION":87.9257,"RA_OF_ASC_NODE":246.1045,"ARG_OF_PERICENTER":88.1315,"MEAN_ANOMALY":272.0089,"EPHEMERIS_TYPE":0,"CLASSIFICATION_TYPE":"U","NORAD_CAT_ID":54647,"ELEMENT_SET_NO":999,"REV_AT_EPOCH":17009,"BSTAR":8.761500000000001e-05,"MEAN_MOTION_DOT":4.9e-07,"MEAN_MOTION_DDOT":0.0},{"OBJECT_NAME":"ONEWEB-0580","OBJECT_ID":"2022-166G","EPOCH":"2026-06-06T11:48:00.164448","MEAN_MOTION":13.21827393,"ECCENTRICITY":0.0002376,"INCLINATION":87.9255,"RA_OF_ASC_NODE":246.1094,"ARG_OF_PERICENTER":93.3518,"MEAN_ANOMALY":266.7887,"EPHEMERIS_TYPE":0,"CLASSIFICATION_TYPE":"U","NORAD_CAT_ID":54648,"ELEMENT_SET_NO":999,"REV_AT_EPOCH":17013,"BSTAR":0.00026782,"MEAN_MOTION_DOT":1.24e-06,"MEAN_MOTION_DDOT":0.0},{"OBJECT_NAME":"ONEWEB-0582","OBJECT_ID":"2022-166H","EPOCH":"2026-06-06T12:48:34.323840","MEAN_MOTION":13.21826397,"ECCENTRICITY":0.0002302,"INCLINATION":87.9258,"RA_OF_ASC_NODE":246.0937,"ARG_OF_PERICENTER":90.2959,"MEAN_ANOMALY":269.8439,"EPHEMERIS_TYPE":0,"CLASSIFICATION_TYPE":"U","NORAD_CAT_ID":54649,"ELEMENT_SET_NO":999,"REV_AT_EPOCH":17011,"BSTAR":0.00011499,"MEAN_MOTION_DOT":6.1e-07,"MEAN_MOTION_DDOT":0.0},{"OBJECT_NAME":"ONEWEB-0583","OBJECT_ID":"2022-166J","EPOCH":"2026-06-06T13:05:31.390944","MEAN_MOTION":13.21827353,"ECCENTRICITY":0.0002056,"INCLINATION":87.9256,"RA_OF_ASC_NODE":246.1147,"ARG_OF_PERICENTER":96.171,"MEAN_ANOMALY":263.9659,"EPHEMERIS_TYPE":0,"CLASSIFICATION_TYPE":"U","NORAD_CAT_ID":54650,"ELEMENT_SET_NO":999,"REV_AT_EPOCH":17012,"BSTAR":-4.9071e-05,"MEAN_MOTION_DOT":-7e-08,"MEAN_MOTION_DDOT":0.0},{"OBJECT_NAME":"ONEWEB-0584","OBJECT_ID":"2022-166K","EPOCH":"2026-06-06T11:45:34.158816","MEAN_MOTION":13.21824955,"ECCENTRICITY":0.0002148,"INCLINATION":87.926,"RA_OF_ASC_NODE":246.1113,"ARG_OF_PERICENTER":98.2897,"MEAN_ANOMALY":261.848,"EPHEMERIS_TYPE":0,"CLASSIFICATION_TYPE":"U","NORAD_CAT_ID":54651,"ELEMENT_SET_NO":999,"REV_AT_EPOCH":17010,"BSTAR":7.381400000000001e-05,"MEAN_MOTION_DOT":4.4e-07,"MEAN_MOTION_DDOT":0.0},{"OBJECT_NAME":"ONEWEB-0585","OBJECT_ID":"2022-166L","EPOCH":"2026-06-06T12:19:30.465984","MEAN_MOTION":13.21825595,"ECCENTRICITY":0.0001925,"INCLINATION":87.926,"RA_OF_ASC_NODE":246.0933,"ARG_OF_PERICENTER":103.3184,"MEAN_ANOMALY":256.8164,"EPHEMERIS_TYPE":0,"CLASSIFICATION_TYPE":"U","NORAD_CAT_ID":54652,"ELEMENT_SET_NO":999,"REV_AT_EPOCH":17011,"BSTAR":8.6942e-05,"MEAN_MOTION_DOT":4.9e-07,"MEAN_MOTION_DDOT":0.0},{"OBJECT_NAME":"ONEWEB-0586","OBJECT_ID":"2022-166M","EPOCH":"2026-06-06T14:27:50.573088","MEAN_MOTION":13.21827864,"ECCENTRICITY":0.0001992,"INCLINATION":87.9255,"RA_OF_ASC_NODE":246.1013,"ARG_OF_PERICENTER":94.5597,"MEAN_ANOMALY":265.5764,"EPHEMERIS_TYPE":0,"CLASSIFICATION_TYPE":"U","NORAD_CAT_ID":54653,"ELEMENT_SET_NO":999,"REV_AT_EPOCH":17012,"BSTAR":-0.0005380700000000001,"MEAN_MOTION_DOT":-2.09e-06,"MEAN_MOTION_DDOT":0.0},{"OBJECT_NAME":"ONEWEB-0587","OBJECT_ID":"2022-166N","EPOCH":"2026-06-06T14:42:22.989312","MEAN_MOTION":13.21828765,"ECCENTRICITY":0.0001825,"INCLINATION":87.9269,"RA_OF_ASC_NODE":246.0718,"ARG_OF_PERICENTER":109.0499,"MEAN_ANOMALY":251.0833,"EPHEMERIS_TYPE":0,"CLASSIFICATION_TYPE":"U","NORAD_CAT_ID":54654,"ELEMENT_SET_NO":999,"REV_AT_EPOCH":17028,"BSTAR":7.3038e-05,"MEAN_MOTION_DOT":4.3e-07,"MEAN_MOTION_DDOT":0.0},{"OBJECT_NAME":"ONEWEB-0589","OBJECT_ID":"2022-166P","EPOCH":"2026-06-06T12:34:00.005088","MEAN_MOTION":13.21825683,"ECCENTRICITY":0.0002664,"INCLINATION":87.9258,"RA_OF_ASC_NODE":246.1033,"ARG_OF_PERICENTER":85.763,"MEAN_ANOMALY":274.3808,"EPHEMERIS_TYPE":0,"CLASSIFICATION_TYPE":"U","NORAD_CAT_ID":54655,"ELEMENT_SET_NO":999,"REV_AT_EPOCH":17013,"BSTAR":-0.0007723799999999999,"MEAN_MOTION_DOT":-3.06e-06,"MEAN_MOTION_DDOT":0.0},{"OBJECT_NAME":"ONEWEB-0590","OBJECT_ID":"2022-166Q","EPOCH":"2026-06-05T22:38:09.038688","MEAN_MOTION":13.21826708,"ECCENTRICITY":0.0002458,"INCLINATION":87.9268,"RA_OF_ASC_NODE":246.2075,"ARG_OF_PERICENTER":107.1308,"MEAN_ANOMALY":253.0095,"EPHEMERIS_TYPE":0,"CLASSIFICATION_TYPE":"U","NORAD_CAT_ID":54656,"ELEMENT_SET_NO":999,"REV_AT_EPOCH":17004,"BSTAR":0.00021002000000000003,"MEAN_MOTION_DOT":1e-06,"MEAN_MOTION_DDOT":0.0},{"OBJECT_NAME":"ONEWEB-0591","OBJECT_ID":"2022-166R","EPOCH":"2026-06-06T11:38:19.851072","MEAN_MOTION":13.21826058,"ECCENTRICITY":0.0002103,"INCLINATION":87.9256,"RA_OF_ASC_NODE":246.1154,"ARG_OF_PERICENTER":100.2622,"MEAN_ANOMALY":259.8749,"EPHEMERIS_TYPE":0,"CLASSIFICATION_TYPE":"U","NORAD_CAT_ID":54657,"ELEMENT_SET_NO":999,"REV_AT_EPOCH":17014,"BSTAR":0.00015065,"MEAN_MOTION_DOT":7.5e-07,"MEAN_MOTION_DDOT":0.0},{"OBJECT_NAME":"ONEWEB-0592","OBJECT_ID":"2022-166S","EPOCH":"2026-06-06T11:43:10.082496","MEAN_MOTION":13.21827124,"ECCENTRICITY":0.0002048,"INCLINATION":87.9268,"RA_OF_ASC_NODE":246.0919,"ARG_OF_PERICENTER":99.7792,"MEAN_ANOMALY":260.3573,"EPHEMERIS_TYPE":0,"CLASSIFICATION_TYPE":"U","NORAD_CAT_ID":54658,"ELEMENT_SET_NO":999,"REV_AT_EPOCH":17002,"BSTAR":9.0686e-05,"MEAN_MOTION_DOT":5e-07,"MEAN_MOTION_DDOT":0.0},{"OBJECT_NAME":"ONEWEB-0593","OBJECT_ID":"2022-166T","EPOCH":"2026-06-06T12:14:38.193792","MEAN_MOTION":13.21827315,"ECCENTRICITY":0.0002025,"INCLINATION":87.9259,"RA_OF_ASC_NODE":246.1001,"ARG_OF_PERICENTER":94.4329,"MEAN_ANOMALY":265.7036,"EPHEMERIS_TYPE":0,"CLASSIFICATION_TYPE":"U","NORAD_CAT_ID":54659,"ELEMENT_SET_NO":999,"REV_AT_EPOCH":17013,"BSTAR":9.131200000000001e-05,"MEAN_MOTION_DOT":5.1e-07,"MEAN_MOTION_DDOT":0.0},{"OBJECT_NAME":"ONEWEB-0594","OBJECT_ID":"2022-166U","EPOCH":"2026-06-06T14:32:41.437824","MEAN_MOTION":13.21825484,"ECCENTRICITY":0.0001966,"INCLINATION":87.9258,"RA_OF_ASC_NODE":246.0976,"ARG_OF_PERICENTER":101.198,"MEAN_ANOMALY":258.9375,"EPHEMERIS_TYPE":0,"CLASSIFICATION_TYPE":"U","NORAD_CAT_ID":54660,"ELEMENT_SET_NO":999,"REV_AT_EPOCH":17016,"BSTAR":-0.0007529400000000001,"MEAN_MOTION_DOT":-2.98e-06,"MEAN_MOTION_DDOT":0.0},{"OBJECT_NAME":"ONEWEB-0595","OBJECT_ID":"2022-166V","EPOCH":"2026-06-06T12:09:48.361536","MEAN_MOTION":13.21826584,"ECCENTRICITY":0.0001959,"INCLINATION":87.9275,"RA_OF_ASC_NODE":246.0974,"ARG_OF_PERICENTER":106.0762,"MEAN_ANOMALY":254.0588,"EPHEMERIS_TYPE":0,"CLASSIFICATION_TYPE":"U","NORAD_CAT_ID":54661,"ELEMENT_SET_NO":999,"REV_AT_EPOCH":17012,"BSTAR":3.3689e-05,"MEAN_MOTION_DOT":2.7e-07,"MEAN_MOTION_DDOT":0.0},{"OBJECT_NAME":"ONEWEB-0596","OBJECT_ID":"2022-166W","EPOCH":"2026-06-06T11:33:28.880064","MEAN_MOTION":13.21826647,"ECCENTRICITY":0.0001986,"INCLINATION":87.9259,"RA_OF_ASC_NODE":246.1143,"ARG_OF_PERICENTER":102.3074,"MEAN_ANOMALY":257.8283,"EPHEMERIS_TYPE":0,"CLASSIFICATION_TYPE":"U","NORAD_CAT_ID":54662,"ELEMENT_SET_NO":999,"REV_AT_EPOCH":17012,"BSTAR":4.6989e-05,"MEAN_MOTION_DOT":3.2e-07,"MEAN_MOTION_DDOT":0.0},{"OBJECT_NAME":"ONEWEB-0597","OBJECT_ID":"2022-166X","EPOCH":"2026-06-06T14:44:50.364384","MEAN_MOTION":13.21826457,"ECCENTRICITY":0.0002069,"INCLINATION":87.9257,"RA_OF_ASC_NODE":246.0912,"ARG_OF_PERICENTER":95.9708,"MEAN_ANOMALY":264.1661,"EPHEMERIS_TYPE":0,"CLASSIFICATION_TYPE":"U","NORAD_CAT_ID":54663,"ELEMENT_SET_NO":999,"REV_AT_EPOCH":17014,"BSTAR":6.1393e-05,"MEAN_MOTION_DOT":3.8e-07,"MEAN_MOTION_DDOT":0.0},{"OBJECT_NAME":"ONEWEB-0600","OBJECT_ID":"2022-166Y","EPOCH":"2026-06-06T12:29:09.432384","MEAN_MOTION":13.21828534,"ECCENTRICITY":0.0001847,"INCLINATION":87.9255,"RA_OF_ASC_NODE":246.1014,"ARG_OF_PERICENTER":94.4679,"MEAN_ANOMALY":265.6666,"EPHEMERIS_TYPE":0,"CLASSIFICATION_TYPE":"U","NORAD_CAT_ID":54664,"ELEMENT_SET_NO":999,"REV_AT_EPOCH":17010,"BSTAR":0.00012619,"MEAN_MOTION_DOT":6.5e-07,"MEAN_MOTION_DDOT":0.0},{"OBJECT_NAME":"ONEWEB-0601","OBJECT_ID":"2022-166Z","EPOCH":"2026-06-06T12:17:03.746688","MEAN_MOTION":13.21824911,"ECCENTRICITY":0.0002203,"INCLINATION":87.9256,"RA_OF_ASC_NODE":246.119,"ARG_OF_PERICENTER":93.7581,"MEAN_ANOMALY":266.3805,"EPHEMERIS_TYPE":0,"CLASSIFICATION_TYPE":"U","NORAD_CAT_ID":54665,"ELEMENT_SET_NO":999,"REV_AT_EPOCH":17029,"BSTAR":0.00013312,"MEAN_MOTION_DOT":6.8e-07,"MEAN_MOTION_DDOT":0.0}]